{
  "type": "FeatureCollection",
  "features": [
    {
      "type": "Feature",
      "properties": {
        "norad_id": 31978,
        "name": "FENGYUN 1C DEB",
        "group": "fengyun-1c-debris",
        "lat": 54.85191230350195,
        "lon": 141.71770519597635,
        "alt_km": 873.7161055648176,
        "timestamp": "2025-12-26T16:33:55.855889+00:00",
        "meta_object_name": "FENGYUN 1C DEB",
        "meta_object_id": "1999-025CPF",
        "meta_epoch": "2025-12-18T09:15:01.115712",
        "meta_mean_motion": 13.63124115,
        "meta_eccentricity": 0.02630419,
        "meta_inclination": 98.3793,
        "meta_ra_of_asc_node": 146.6417,
        "meta_arg_of_pericenter": 35.0311,
        "meta_mean_anomaly": 326.7827,
        "meta_ephemeris_type": 0,
        "meta_classification_type": "U",
        "meta_norad_cat_id": 31978,
        "meta_element_set_no": 999,
        "meta_rev_at_epoch": 91667,
        "meta_bstar": 0.0010168637,
        "meta_mean_motion_dot": 9.73e-06,
        "meta_mean_motion_ddot": 0,
        "tle_line1": "1 31978U 99025CPF 25352.38542958  .00000973  00000+0  10169-2 0  9991",
        "tle_line2": "2 31978  98.3793 146.6417 0263041  35.0311 326.7827 13.63124115916678"
      },
      "geometry": {
        "type": "Point",
        "coordinates": [
          141.71770519597635,
          54.85191230350195
        ]
      }
    },
    {
      "type": "Feature",
      "properties": {
        "norad_id": 31979,
        "name": "FENGYUN 1C DEB",
        "group": "fengyun-1c-debris",
        "lat": -73.3357376360716,
        "lon": 126.43783060348834,
        "alt_km": 853.093277609164,
        "timestamp": "2025-12-26T16:33:55.855901+00:00",
        "meta_object_name": "FENGYUN 1C DEB",
        "meta_object_id": "1999-025CPG",
        "meta_epoch": "2025-12-24T00:03:02.329056",
        "meta_mean_motion": 13.69365262,
        "meta_eccentricity": 0.026836,
        "meta_inclination": 99.3762,
        "meta_ra_of_asc_node": 90.3171,
        "meta_arg_of_pericenter": 251.8251,
        "meta_mean_anomaly": 105.351,
        "meta_ephemeris_type": 0,
        "meta_classification_type": "U",
        "meta_norad_cat_id": 31979,
        "meta_element_set_no": 999,
        "meta_rev_at_epoch": 58066,
        "meta_bstar": 0.0034261575,
        "meta_mean_motion_dot": 3.79e-05,
        "meta_mean_motion_ddot": 0,
        "tle_line1": "1 31979U 99025CPG 25358.00211029  .00003790  00000+0  34262-2 0  9999",
        "tle_line2": "2 31979  99.3762  90.3171 0268360 251.8251 105.3510 13.69365262580660"
      },
      "geometry": {
        "type": "Point",
        "coordinates": [
          126.43783060348834,
          -73.3357376360716
        ]
      }
    },
    {
      "type": "Feature",
      "properties": {
        "norad_id": 31980,
        "name": "FENGYUN 1C DEB",
        "group": "fengyun-1c-debris",
        "lat": -74.51776473520957,
        "lon": -126.45985588917766,
        "alt_km": 1467.7753990568544,
        "timestamp": "2025-12-26T16:33:55.855910+00:00",
        "meta_object_name": "FENGYUN 1C DEB",
        "meta_object_id": "1999-025CPH",
        "meta_epoch": "2025-12-16T11:57:41.696928",
        "meta_mean_motion": 13.32153551,
        "meta_eccentricity": 0.04281038,
        "meta_inclination": 97.6145,
        "meta_ra_of_asc_node": 74.8269,
        "meta_arg_of_pericenter": 103.3204,
        "meta_mean_anomaly": 261.6022,
        "meta_ephemeris_type": 0,
        "meta_classification_type": "U",
        "meta_norad_cat_id": 31980,
        "meta_element_set_no": 999,
        "meta_rev_at_epoch": 89720,
        "meta_bstar": 0.00040322723,
        "meta_mean_motion_dot": 3.01e-06,
        "meta_mean_motion_ddot": 0,
        "tle_line1": "1 31980U 99025CPH 25350.49839927  .00000301  00000+0  40323-3 0  9990",
        "tle_line2": "2 31980  97.6145  74.8269 0428103 103.3204 261.6022 13.32153551897206"
      },
      "geometry": {
        "type": "Point",
        "coordinates": [
          -126.45985588917766,
          -74.51776473520957
        ]
      }
    },
    {
      "type": "Feature",
      "properties": {
        "norad_id": 31984,
        "name": "FENGYUN 1C DEB",
        "group": "fengyun-1c-debris",
        "lat": 54.87676796692506,
        "lon": -163.00550013590987,
        "alt_km": 788.9433075858951,
        "timestamp": "2025-12-26T16:33:55.855920+00:00",
        "meta_object_name": "FENGYUN 1C DEB",
        "meta_object_id": "1999-025CPM",
        "meta_epoch": "2025-12-18T07:09:32.915232",
        "meta_mean_motion": 14.22968839,
        "meta_eccentricity": 0.00628019,
        "meta_inclination": 98.5578,
        "meta_ra_of_asc_node": 356.4784,
        "meta_arg_of_pericenter": 210.9858,
        "meta_mean_anomaly": 148.7609,
        "meta_ephemeris_type": 0,
        "meta_classification_type": "U",
        "meta_norad_cat_id": 31984,
        "meta_element_set_no": 999,
        "meta_rev_at_epoch": 94452,
        "meta_bstar": 0.00030022048,
        "meta_mean_motion_dot": 6.47e-06,
        "meta_mean_motion_ddot": 0,
        "tle_line1": "1 31984U 99025CPM 25352.29829763  .00000647  00000+0  30022-3 0  9999",
        "tle_line2": "2 31984  98.5578 356.4784 0062801 210.9858 148.7609 14.22968839944527"
      },
      "geometry": {
        "type": "Point",
        "coordinates": [
          -163.00550013590987,
          54.87676796692506
        ]
      }
    },
    {
      "type": "Feature",
      "properties": {
        "norad_id": 31985,
        "name": "FENGYUN 1C DEB",
        "group": "fengyun-1c-debris",
        "lat": -77.90194537410568,
        "lon": 38.59537137519485,
        "alt_km": 760.0277171895577,
        "timestamp": "2025-12-26T16:33:55.855929+00:00",
        "meta_object_name": "FENGYUN 1C DEB",
        "meta_object_id": "1999-025CPN",
        "meta_epoch": "2025-12-23T13:05:30.625440",
        "meta_mean_motion": 14.22990386,
        "meta_eccentricity": 0.01508831,
        "meta_inclination": 98.2195,
        "meta_ra_of_asc_node": 258.061,
        "meta_arg_of_pericenter": 214.7786,
        "meta_mean_anomaly": 144.346,
        "meta_ephemeris_type": 0,
        "meta_classification_type": "U",
        "meta_norad_cat_id": 31985,
        "meta_element_set_no": 999,
        "meta_rev_at_epoch": 95764,
        "meta_bstar": 0.00026019142,
        "meta_mean_motion_dot": 6.17e-06,
        "meta_mean_motion_ddot": 0,
        "tle_line1": "1 31985U 99025CPN 25357.54549335  .00000617  00000+0  26019-3 0  9995",
        "tle_line2": "2 31985  98.2195 258.0610 0150883 214.7786 144.3460 14.22990386957641"
      },
      "geometry": {
        "type": "Point",
        "coordinates": [
          38.59537137519485,
          -77.90194537410568
        ]
      }
    },
    {
      "type": "Feature",
      "properties": {
        "norad_id": 31987,
        "name": "FENGYUN 1C DEB",
        "group": "fengyun-1c-debris",
        "lat": 63.67319387010371,
        "lon": -43.589834881996964,
        "alt_km": 712.2492620337716,
        "timestamp": "2025-12-26T16:33:55.855938+00:00",
        "meta_object_name": "FENGYUN 1C DEB",
        "meta_object_id": "1999-025CPQ",
        "meta_epoch": "2025-12-24T21:11:48.639840",
        "meta_mean_motion": 14.44986343,
        "meta_eccentricity": 0.0052109,
        "meta_inclination": 99.0406,
        "meta_ra_of_asc_node": 333.2581,
        "meta_arg_of_pericenter": 121.4546,
        "meta_mean_anomaly": 269.479,
        "meta_ephemeris_type": 0,
        "meta_classification_type": "U",
        "meta_norad_cat_id": 31987,
        "meta_element_set_no": 999,
        "meta_rev_at_epoch": 96545,
        "meta_bstar": 0.0010158,
        "meta_mean_motion_dot": 3.554e-05,
        "meta_mean_motion_ddot": 0,
        "tle_line1": "1 31987U 99025CPQ 25358.88320185  .00003554  00000+0  10158-2 0  9994",
        "tle_line2": "2 31987  99.0406 333.2581 0052109 121.4546 269.4790 14.44986343965455"
      },
      "geometry": {
        "type": "Point",
        "coordinates": [
          -43.589834881996964,
          63.67319387010371
        ]
      }
    },
    {
      "type": "Feature",
      "properties": {
        "norad_id": 31989,
        "name": "FENGYUN 1C DEB",
        "group": "fengyun-1c-debris",
        "lat": -51.54464196468773,
        "lon": 73.57972061607279,
        "alt_km": 864.5088818683771,
        "timestamp": "2025-12-26T16:33:55.855947+00:00",
        "meta_object_name": "FENGYUN 1C DEB",
        "meta_object_id": "1999-025CPS",
        "meta_epoch": "2025-12-24T09:59:02.280768",
        "meta_mean_motion": 13.93605724,
        "meta_eccentricity": 0.01154086,
        "meta_inclination": 99.2115,
        "meta_ra_of_asc_node": 59.5243,
        "meta_arg_of_pericenter": 267.1685,
        "meta_mean_anomaly": 155.8429,
        "meta_ephemeris_type": 0,
        "meta_classification_type": "U",
        "meta_norad_cat_id": 31989,
        "meta_element_set_no": 999,
        "meta_rev_at_epoch": 93880,
        "meta_bstar": 0.00057348389,
        "meta_mean_motion_dot": 7.5e-06,
        "meta_mean_motion_ddot": 0,
        "tle_line1": "1 31989U 99025CPS 25358.41599862  .00000750  00000+0  57348-3 0  9993",
        "tle_line2": "2 31989  99.2115  59.5243 0115408 267.1685 155.8429 13.93605724938803"
      },
      "geometry": {
        "type": "Point",
        "coordinates": [
          73.57972061607279,
          -51.54464196468773
        ]
      }
    }
  ]
}